SL-16 R/B               
1 25400U 98043G   26030.14160790  .00000119  00000+0  68624-4 0  9994
2 25400  98.8191 343.2475 0010710 122.8336 237.3876 14.26040036433496
SL-16 R/B               
1 25407U 98045B   26030.07809694 -.00000116  00000+0 -34298-4 0  9997
2 25407  71.0099 262.7742 0005067  81.6928 278.4770 14.16186989421632
ISS (ZARYA)             
1 25544U 98067A   26030.04787889  .00010491  00000+0  20300-3 0  9994
2 25544  51.6320 263.3752 0011112  44.5726 315.6154 15.48278961550344
CZ-4B R/B               
1 25732U 99025C   26030.14755161  .00000091  00000+0  64654-4 0  9993
2 25732  98.6701  75.3289 0038175  95.7594 333.7674 14.18257141382706
OKEAN-O                 
1 25860U 99039A   26030.12289427  .00001152  00000+0  15820-3 0  9994
2 25860  97.9526  90.3903 0001899  94.1213 266.0216 14.80268754428688
SL-16 R/B               
1 25861U 99039B   26030.13925700  .00000946  00000+0  12685-3 0  9993
2 25861  98.0049  89.2770 0015380  27.3988 332.8032 14.81674122431152
DELTA 2 R/B             
1 25876U 99041E   26030.21309611  .00003082  00000+0  53279-3 0  9996
2 25876  51.7642  94.9260 0502688 234.7397 120.5516 14.11668385357591
HELIOS 1B               
1 25977U 99064A   26030.23961742  .00002572  00000+0  28989-3 0  9997
2 25977  98.1738 291.3463 0001593 126.9379 233.1982 14.87531760679542
TERRA                   
1 25994U 99068A   26030.22702332  .00000698  00000+0  15149-3 0  9998
2 25994  97.9673  85.1153 0001294 332.9519  97.4915 14.60970471389467
SL-16 R/B               
1 26070U 00006B   26029.87151104  .00000322  00000+0  18765-3 0  9993
2 26070  71.0019 179.4553 0018573 243.9267 115.9945 14.15817351343062
TITAN 4B R/B            
1 26474U 00047B   26030.26251559  .00005735  00000+0  36210-3 0  9994
2 26474  67.9896 148.5375 0036679  83.4381 277.0942 15.09234072387115
ENVISAT                 
1 27386U 02009A   26030.32091745  .00000203  00000+0  79622-4 0  9993
2 27386  98.3666 344.8477 0001241  92.2175  76.5440 14.39021754253650
