CCSDS_OMM_VERS = 2.0
CREATION_DATE  = 
ORIGINATOR     = 

OBJECT_NAME    = SL-16 R/B
OBJECT_ID      = 1998-043G
CENTER_NAME    = EARTH
REF_FRAME      = TEME
TIME_SYSTEM    = UTC
MEAN_ELEMENT_THEORY = SGP/SGP4

EPOCH          = 2026-01-30T03:23:54.922560
MEAN_MOTION    = 14.26040036
ECCENTRICITY   = .00107103
INCLINATION    = 98.8191
RA_OF_ASC_NODE = 343.2475
ARG_OF_PERICENTER = 122.8336
MEAN_ANOMALY   = 237.3876

EPHEMERIS_TYPE = 0
CLASSIFICATION_TYPE = U
NORAD_CAT_ID   = 25400
ELEMENT_SET_NO = 999
REV_AT_EPOCH   = 43349
BSTAR          = .68623903E-4
MEAN_MOTION_DOT = .119E-5
MEAN_MOTION_DDOT = 0

CCSDS_OMM_VERS = 2.0
CREATION_DATE  = 
ORIGINATOR     = 

OBJECT_NAME    = SL-16 R/B
OBJECT_ID      = 1998-045B
CENTER_NAME    = EARTH
REF_FRAME      = TEME
TIME_SYSTEM    = UTC
MEAN_ELEMENT_THEORY = SGP/SGP4

EPOCH          = 2026-01-30T01:52:27.575616
MEAN_MOTION    = 14.16186989
ECCENTRICITY   = .00050675
INCLINATION    = 71.0099
RA_OF_ASC_NODE = 262.7742
ARG_OF_PERICENTER = 81.6928
MEAN_ANOMALY   = 278.4770

EPHEMERIS_TYPE = 0
CLASSIFICATION_TYPE = U
NORAD_CAT_ID   = 25407
ELEMENT_SET_NO = 999
REV_AT_EPOCH   = 42163
BSTAR          = -.34297694E-4
MEAN_MOTION_DOT = -.116E-5
MEAN_MOTION_DDOT = 0

CCSDS_OMM_VERS = 2.0
CREATION_DATE  = 
ORIGINATOR     = 

OBJECT_NAME    = ISS (ZARYA)
OBJECT_ID      = 1998-067A
CENTER_NAME    = EARTH
REF_FRAME      = TEME
TIME_SYSTEM    = UTC
MEAN_ELEMENT_THEORY = SGP/SGP4

EPOCH          = 2026-01-30T01:08:56.736096
MEAN_MOTION    = 15.48278961
ECCENTRICITY   = .00111123
INCLINATION    = 51.6320
RA_OF_ASC_NODE = 263.3752
ARG_OF_PERICENTER = 44.5726
MEAN_ANOMALY   = 315.6154

EPHEMERIS_TYPE = 0
CLASSIFICATION_TYPE = U
NORAD_CAT_ID   = 25544
ELEMENT_SET_NO = 999
REV_AT_EPOCH   = 55034
BSTAR          = .20299862E-3
MEAN_MOTION_DOT = .10491E-3
MEAN_MOTION_DDOT = 0

CCSDS_OMM_VERS = 2.0
CREATION_DATE  = 
ORIGINATOR     = 

OBJECT_NAME    = CZ-4B R/B
OBJECT_ID      = 1999-025C
CENTER_NAME    = EARTH
REF_FRAME      = TEME
TIME_SYSTEM    = UTC
MEAN_ELEMENT_THEORY = SGP/SGP4

EPOCH          = 2026-01-30T03:32:28.459104
MEAN_MOTION    = 14.18257141
ECCENTRICITY   = .00381751
INCLINATION    = 98.6701
RA_OF_ASC_NODE = 75.3289
ARG_OF_PERICENTER = 95.7594
MEAN_ANOMALY   = 333.7674

EPHEMERIS_TYPE = 0
CLASSIFICATION_TYPE = U
NORAD_CAT_ID   = 25732
ELEMENT_SET_NO = 999
REV_AT_EPOCH   = 38270
BSTAR          = .64654146E-4
MEAN_MOTION_DOT = .91E-6
MEAN_MOTION_DDOT = 0

CCSDS_OMM_VERS = 2.0
CREATION_DATE  = 
ORIGINATOR     = 

OBJECT_NAME    = OKEAN-O
OBJECT_ID      = 1999-039A
CENTER_NAME    = EARTH
REF_FRAME      = TEME
TIME_SYSTEM    = UTC
MEAN_ELEMENT_THEORY = SGP/SGP4

EPOCH          = 2026-01-30T02:56:58.064928
MEAN_MOTION    = 14.80268754
ECCENTRICITY   = .00018998
INCLINATION    = 97.9526
RA_OF_ASC_NODE = 90.3903
ARG_OF_PERICENTER = 94.1213
MEAN_ANOMALY   = 266.0216

EPHEMERIS_TYPE = 0
CLASSIFICATION_TYPE = U
NORAD_CAT_ID   = 25860
ELEMENT_SET_NO = 999
REV_AT_EPOCH   = 42868
BSTAR          = .15820298E-3
MEAN_MOTION_DOT = .1152E-4
MEAN_MOTION_DDOT = 0

CCSDS_OMM_VERS = 2.0
CREATION_DATE  = 
ORIGINATOR     = 

OBJECT_NAME    = SL-16 R/B
OBJECT_ID      = 1999-039B
CENTER_NAME    = EARTH
REF_FRAME      = TEME
TIME_SYSTEM    = UTC
MEAN_ELEMENT_THEORY = SGP/SGP4

EPOCH          = 2026-01-30T03:20:31.804800
MEAN_MOTION    = 14.81674122
ECCENTRICITY   = .00153806
INCLINATION    = 98.0049
RA_OF_ASC_NODE = 89.2770
ARG_OF_PERICENTER = 27.3988
MEAN_ANOMALY   = 332.8032

EPHEMERIS_TYPE = 0
CLASSIFICATION_TYPE = U
NORAD_CAT_ID   = 25861
ELEMENT_SET_NO = 999
REV_AT_EPOCH   = 43115
BSTAR          = .1268533E-3
MEAN_MOTION_DOT = .946E-5
MEAN_MOTION_DDOT = 0

CCSDS_OMM_VERS = 2.0
CREATION_DATE  = 
ORIGINATOR     = 

OBJECT_NAME    = DELTA 2 R/B
OBJECT_ID      = 1999-041E
CENTER_NAME    = EARTH
REF_FRAME      = TEME
TIME_SYSTEM    = UTC
MEAN_ELEMENT_THEORY = SGP/SGP4

EPOCH          = 2026-01-30T05:06:51.503904
MEAN_MOTION    = 14.11668385
ECCENTRICITY   = .05026882
INCLINATION    = 51.7642
RA_OF_ASC_NODE = 94.9260
ARG_OF_PERICENTER = 234.7397
MEAN_ANOMALY   = 120.5516

EPHEMERIS_TYPE = 0
CLASSIFICATION_TYPE = U
NORAD_CAT_ID   = 25876
ELEMENT_SET_NO = 999
REV_AT_EPOCH   = 35759
BSTAR          = .53279369E-3
MEAN_MOTION_DOT = .3082E-4
MEAN_MOTION_DDOT = 0

CCSDS_OMM_VERS = 2.0
CREATION_DATE  = 
ORIGINATOR     = 

OBJECT_NAME    = HELIOS 1B
OBJECT_ID      = 1999-064A
CENTER_NAME    = EARTH
REF_FRAME      = TEME
TIME_SYSTEM    = UTC
MEAN_ELEMENT_THEORY = SGP/SGP4

EPOCH          = 2026-01-30T05:45:02.945088
MEAN_MOTION    = 14.87531760
ECCENTRICITY   = .00015936
INCLINATION    = 98.1738
RA_OF_ASC_NODE = 291.3463
ARG_OF_PERICENTER = 126.9379
MEAN_ANOMALY   = 233.1982

EPHEMERIS_TYPE = 0
CLASSIFICATION_TYPE = U
NORAD_CAT_ID   = 25977
ELEMENT_SET_NO = 999
REV_AT_EPOCH   = 67954
BSTAR          = .28989278E-3
MEAN_MOTION_DOT = .2572E-4
MEAN_MOTION_DDOT = 0

CCSDS_OMM_VERS = 2.0
CREATION_DATE  = 
ORIGINATOR     = 

OBJECT_NAME    = TERRA
OBJECT_ID      = 1999-068A
CENTER_NAME    = EARTH
REF_FRAME      = TEME
TIME_SYSTEM    = UTC
MEAN_ELEMENT_THEORY = SGP/SGP4

EPOCH          = 2026-01-30T05:26:54.814848
MEAN_MOTION    = 14.60970471
ECCENTRICITY   = .00012947
INCLINATION    = 97.9673
RA_OF_ASC_NODE = 85.1153
ARG_OF_PERICENTER = 332.9519
MEAN_ANOMALY   = 97.4915

EPHEMERIS_TYPE = 0
CLASSIFICATION_TYPE = U
NORAD_CAT_ID   = 25994
ELEMENT_SET_NO = 999
REV_AT_EPOCH   = 38946
BSTAR          = .15149045E-3
MEAN_MOTION_DOT = .698E-5
MEAN_MOTION_DDOT = 0

CCSDS_OMM_VERS = 2.0
CREATION_DATE  = 
ORIGINATOR     = 

OBJECT_NAME    = SL-16 R/B
OBJECT_ID      = 2000-006B
CENTER_NAME    = EARTH
REF_FRAME      = TEME
TIME_SYSTEM    = UTC
MEAN_ELEMENT_THEORY = SGP/SGP4

EPOCH          = 2026-01-29T20:54:58.553856
MEAN_MOTION    = 14.15817351
ECCENTRICITY   = .00185731
INCLINATION    = 71.0019
RA_OF_ASC_NODE = 179.4553
ARG_OF_PERICENTER = 243.9267
MEAN_ANOMALY   = 115.9945

EPHEMERIS_TYPE = 0
CLASSIFICATION_TYPE = U
NORAD_CAT_ID   = 26070
ELEMENT_SET_NO = 999
REV_AT_EPOCH   = 34306
BSTAR          = .18764845E-3
MEAN_MOTION_DOT = .322E-5
MEAN_MOTION_DDOT = 0

CCSDS_OMM_VERS = 2.0
CREATION_DATE  = 
ORIGINATOR     = 

OBJECT_NAME    = TITAN 4B R/B
OBJECT_ID      = 2000-047B
CENTER_NAME    = EARTH
REF_FRAME      = TEME
TIME_SYSTEM    = UTC
MEAN_ELEMENT_THEORY = SGP/SGP4

EPOCH          = 2026-01-30T06:18:01.346976
MEAN_MOTION    = 15.09234072
ECCENTRICITY   = .00366794
INCLINATION    = 67.9896
RA_OF_ASC_NODE = 148.5375
ARG_OF_PERICENTER = 83.4381
MEAN_ANOMALY   = 277.0942

EPHEMERIS_TYPE = 0
CLASSIFICATION_TYPE = U
NORAD_CAT_ID   = 26474
ELEMENT_SET_NO = 999
REV_AT_EPOCH   = 38711
BSTAR          = .36209982E-3
MEAN_MOTION_DOT = .5735E-4
MEAN_MOTION_DDOT = 0

CCSDS_OMM_VERS = 2.0
CREATION_DATE  = 
ORIGINATOR     = 

OBJECT_NAME    = ENVISAT
OBJECT_ID      = 2002-009A
CENTER_NAME    = EARTH
REF_FRAME      = TEME
TIME_SYSTEM    = UTC
MEAN_ELEMENT_THEORY = SGP/SGP4

EPOCH          = 2026-01-30T07:42:07.267680
MEAN_MOTION    = 14.39021754
ECCENTRICITY   = .00012412
INCLINATION    = 98.3666
RA_OF_ASC_NODE = 344.8477
ARG_OF_PERICENTER = 92.2175
MEAN_ANOMALY   = 76.5440

EPHEMERIS_TYPE = 0
CLASSIFICATION_TYPE = U
NORAD_CAT_ID   = 27386
ELEMENT_SET_NO = 999
REV_AT_EPOCH   = 25365
BSTAR          = .79622475E-4
MEAN_MOTION_DOT = .203E-5
MEAN_MOTION_DDOT = 0

